GLOBALSTAR M067         
1 32263U 07048A   24267.49759929 -.00000072  00000+0  19039-3 0  9994
2 32263  51.9714  96.2775 0001643 109.8088 270.7631 12.40655609776384
GLOBALSTAR M070         
1 32264U 07048B   24267.63553398 -.00000056  00000+0  26594-3 0  9999
2 32264  51.9735 220.5178 0000232  60.1925 111.0519 12.62300829780000
GLOBALSTAR M066         
1 32265U 07048C   24267.48083274 -.00000080  00000+0  13075-3 0  9991
2 32265  51.9664  85.1264 0001280  25.6838 352.1042 12.53546354782215
GLOBALSTAR M068         
1 32266U 07048D   24267.64349642 -.00000095  00000+0  50115-4 0  9997
2 32266  51.9902  34.7551 0000267 227.7457 145.2241 12.62800390783885
GLOBALSTAR M079         
1 37188U 10054A   24267.34964844 -.00000079  00000+0  14042-3 0  9990
2 37188  52.0023 232.0835 0000700  64.0477 100.2957 12.62264366642755
GLOBALSTAR M074         
1 37189U 10054B   24267.61456509 -.00000089  00000+0  83985-4 0  9999
2 37189  52.0000 230.6360 0000463  73.9924  97.4979 12.62289235643394
GLOBALSTAR M076         
1 37190U 10054C   24267.64188887 -.00000073  00000+0  17355-3 0  9995
2 37190  52.0015 230.7072 0000713  92.6827  78.2694 12.62270377643119
GLOBALSTAR M077         
1 37191U 10054D   24267.23098330 -.00000065  00000+0  21654-3 0  9992
2 37191  52.0059 188.7353 0000588  65.7931  98.6251 12.62264050643430
